{"fetched_at":"2026-03-29T12:54:09Z","count":15711,"tles":[{"name":"STARLINK-33636","line1":"1 63379U 25063S   26087.90016248  .00013622  00000+0  47068-3 0  9998","line2":"2 63379  53.1615 323.0217 0000702 140.4072 219.6980 15.30234845 57659","category":"Starlink"}]}